SENTINEL-3A             
1 41335U 16011A   26204.82433404  .00000151  00000+0  80335-4 0  9996
2 41335  98.6230 271.6781 0001287  86.8623 273.2705 14.26736224543284
SENTINEL-3B             
1 43437U 18039A   26204.44684152  .00000073  00000+0  48155-4 0  9996
2 43437  98.6229 271.4552 0001317 117.9651 242.1662 14.26738084429299
