{"fetched_at":"2026-07-24T07:06:49.459Z","source":"https://celestrak.org/NORAD/elements/gp.php?NAME=SENTINEL&FORMAT=JSON","constellation":"sentinel-3","records":[{"OBJECT_NAME":"SENTINEL-3A","OBJECT_ID":"2016-011A","EPOCH":"2026-07-23T19:47:02.461056","CLASSIFICATION_TYPE":"U","MEAN_MOTION":14.26736224,"ECCENTRICITY":0.0001287,"INCLINATION":98.623,"RA_OF_ASC_NODE":271.6781,"ARG_OF_PERICENTER":86.8623,"MEAN_ANOMALY":273.2705,"EPHEMERIS_TYPE":0,"NORAD_CAT_ID":41335,"ELEMENT_SET_NO":999,"REV_AT_EPOCH":54328,"BSTAR":0.000080335,"MEAN_MOTION_DOT":0.00000151,"MEAN_MOTION_DDOT":0},{"OBJECT_NAME":"SENTINEL-3B","OBJECT_ID":"2018-039A","EPOCH":"2026-07-23T10:43:27.107328","CLASSIFICATION_TYPE":"U","MEAN_MOTION":14.26738084,"ECCENTRICITY":0.0001317,"INCLINATION":98.6229,"RA_OF_ASC_NODE":271.4552,"ARG_OF_PERICENTER":117.9651,"MEAN_ANOMALY":242.1662,"EPHEMERIS_TYPE":0,"NORAD_CAT_ID":43437,"ELEMENT_SET_NO":999,"REV_AT_EPOCH":42929,"BSTAR":0.000048155,"MEAN_MOTION_DOT":7.3e-7,"MEAN_MOTION_DDOT":0}]}
